{"type":"FeatureCollection","features":[{"type":"Feature","properties":{"name":"한성대입구","name_en":"Hansung University","network":"수도권 전철"},"geometry":{"type":"Point","coordinates":[127.00596,37.58851]}},{"type":"Feature","properties":{"name":"제기동","name_en":"Jegi-dong","network":"수도권 전철"},"geometry":{"type":"Point","coordinates":[127.03447,37.57838]}},{"type":"Feature","properties":{"name":"신이문","name_en":"Sinimun","network":"수도권 전철"},"geometry":{"type":"Point","coordinates":[127.06729,37.60164]}},{"type":"Feature","properties":{"name":"회기","name_en":"Hoegi","network":"수도권 전철"},"geometry":{"type":"Point","coordinates":[127.05762,37.5895]}},{"type":"Feature","properties":{"name":"월계","name_en":"Wolgye","network":"수도권 전철"},"geometry":{"type":"Point","coordinates":[127.05887,37.63306]}},{"type":"Feature","properties":{"name":"녹천","name_en":"Nokcheon","network":"수도권 전철"},"geometry":{"type":"Point","coordinates":[127.0514,37.64463]}},{"type":"Feature","properties":{"name":"광운대","name_en":"Kwangwoon University","network":"수도권 전철"},"geometry":{"type":"Point","coordinates":[127.06182,37.6237]}},{"type":"Feature","properties":{"name":"창동","name_en":"Chang-Dong","network":"수도권 전철"},"geometry":{"type":"Point","coordinates":[127.04798,37.6526]}},{"type":"Feature","properties":{"name":"방학","name_en":"Banghak","network":"수도권 전철"},"geometry":{"type":"Point","coordinates":[127.0443,37.66769]}},{"type":"Feature","properties":{"name":"오류동","name_en":"Oryu-dong","network":"수도권 전철"},"geometry":{"type":"Point","coordinates":[126.84454,37.49435]}},{"type":"Feature","properties":{"name":"개봉","name_en":"Gaebong","network":"수도권 전철"},"geometry":{"type":"Point","coordinates":[126.85875,37.49459]}},{"type":"Feature","properties":{"name":"구일","name_en":"Guil","network":"수도권 전철"},"geometry":{"type":"Point","coordinates":[126.86971,37.49621]}},{"type":"Feature","properties":{"name":"중동","name_en":"Jung-dong","network":null},"geometry":{"type":"Point","coordinates":[126.76397,37.48678]}},{"type":"Feature","properties":{"name":"소사","name_en":null,"network":"수도권 전철"},"geometry":{"type":"Point","coordinates":[126.79559,37.48277]}},{"type":"Feature","properties":{"name":"부천","name_en":"Bucheon","network":null},"geometry":{"type":"Point","coordinates":[126.78273,37.48411]}},{"type":"Feature","properties":{"name":"과천","name_en":"Gwacheon","network":null},"geometry":{"type":"Point","coordinates":[126.99696,37.43307]}},{"type":"Feature","properties":{"name":"경마공원","name_en":"Seoul Racecourse Park","network":null},"geometry":{"type":"Point","coordinates":[127.0079,37.44376]}},{"type":"Feature","properties":{"name":"일원","name_en":"Ilwon","network":"수도권 전철"},"geometry":{"type":"Point","coordinates":[127.08438,37.48369]}},{"type":"Feature","properties":{"name":"국회의사당","name_en":"National Assembly","network":"수도권 전철"},"geometry":{"type":"Point","coordinates":[126.91796,37.52802]}},{"type":"Feature","properties":{"name":"노들","name_en":"Nodeul","network":"수도권 전철"},"geometry":{"type":"Point","coordinates":[126.95355,37.51297]}},{"type":"Feature","properties":{"name":"신설동","name_en":"Sinseol-dong","network":"수도권 전철"},"geometry":{"type":"Point","coordinates":[127.02467,37.57605]}},{"type":"Feature","properties":{"name":"용답","name_en":"Yongdap","network":"수도권 전철"},"geometry":{"type":"Point","coordinates":[127.05086,37.56209]}},{"type":"Feature","properties":{"name":"수서","name_en":"Suseo","network":"수도권 전철"},"geometry":{"type":"Point","coordinates":[127.10184,37.48742]}},{"type":"Feature","properties":{"name":"충정로","name_en":"Chungjeongno","network":"수도권 전철"},"geometry":{"type":"Point","coordinates":[126.96291,37.55937]}},{"type":"Feature","properties":{"name":"종로5가","name_en":"Jongno 5(o)-ga","network":"수도권 전철"},"geometry":{"type":"Point","coordinates":[127.00202,37.57099]}},{"type":"Feature","properties":{"name":"고속터미널","name_en":"Express Bus Terminal","network":"수도권 전철"},"geometry":{"type":"Point","coordinates":[127.00492,37.50504]}},{"type":"Feature","properties":{"name":"봉은사","name_en":"Bongeunsa","network":"수도권 전철"},"geometry":{"type":"Point","coordinates":[127.06024,37.51419]}},{"type":"Feature","properties":{"name":"언주","name_en":"Eonju","network":"수도권 전철"},"geometry":{"type":"Point","coordinates":[127.03387,37.50732]}},{"type":"Feature","properties":{"name":"삼성중앙","name_en":"Samseong Jungang","network":"수도권 전철"},"geometry":{"type":"Point","coordinates":[127.05347,37.5131]}},{"type":"Feature","properties":{"name":"사평","name_en":"Sapyeong","network":"수도권 전철"},"geometry":{"type":"Point","coordinates":[127.01514,37.5043]}},{"type":"Feature","properties":{"name":"선정릉","name_en":"Seonjeongneung","network":"수도권 전철"},"geometry":{"type":"Point","coordinates":[127.04386,37.51025]}},{"type":"Feature","properties":{"name":"신논현","name_en":"Sinnonhyeon","network":"수도권 전철"},"geometry":{"type":"Point","coordinates":[127.02453,37.50432]}},{"type":"Feature","properties":{"name":"외대앞","name_en":"Hankuk Univ. of Foreign Studies","network":"수도권 전철"},"geometry":{"type":"Point","coordinates":[127.06374,37.59631]}},{"type":"Feature","properties":{"name":"구반포","name_en":"Gubanpo","network":"수도권 전철"},"geometry":{"type":"Point","coordinates":[126.98678,37.50129]}},{"type":"Feature","properties":{"name":"흑석","name_en":"Heukseok","network":"수도권 전철"},"geometry":{"type":"Point","coordinates":[126.96395,37.50838]}},{"type":"Feature","properties":{"name":"신반포","name_en":"Sinbanpo","network":"수도권 전철"},"geometry":{"type":"Point","coordinates":[126.99642,37.5036]}},{"type":"Feature","properties":{"name":"온수","name_en":"Onsu","network":"수도권 전철"},"geometry":{"type":"Point","coordinates":[126.82353,37.4923]}},{"type":"Feature","properties":{"name":"도봉","name_en":"Dobong","network":"수도권 전철"},"geometry":{"type":"Point","coordinates":[127.04555,37.67921]}},{"type":"Feature","properties":{"name":"양재","name_en":"Yangjae","network":"수도권 전철"},"geometry":{"type":"Point","coordinates":[127.03415,37.4844]}},{"type":"Feature","properties":{"name":"복정","name_en":"Bokjeong","network":"수도권 전철"},"geometry":{"type":"Point","coordinates":[127.12671,37.47058]}},{"type":"Feature","properties":{"name":"석수","name_en":"Seoksu","network":null},"geometry":{"type":"Point","coordinates":[126.90231,37.43513]}},{"type":"Feature","properties":{"name":"독산","name_en":"Doksan","network":"수도권 전철"},"geometry":{"type":"Point","coordinates":[126.88948,37.46607]}},{"type":"Feature","properties":{"name":"금천구청","name_en":"Geumcheon-gu Office","network":"수도권 전철"},"geometry":{"type":"Point","coordinates":[126.8939,37.45581]}},{"type":"Feature","properties":{"name":"암사역사공원","name_en":"Amsa History Park","network":"수도권 전철"},"geometry":{"type":"Point","coordinates":[127.13743,37.55705]}},{"type":"Feature","properties":{"name":"보문","name_en":"Bomun","network":"수도권 전철"},"geometry":{"type":"Point","coordinates":[127.01937,37.58527]}},{"type":"Feature","properties":{"name":"동작","name_en":"Dongjak","network":"수도권 전철"},"geometry":{"type":"Point","coordinates":[126.9782,37.50297]}},{"type":"Feature","properties":{"name":"도곡","name_en":"Dogok","network":"수도권 전철"},"geometry":{"type":"Point","coordinates":[127.05547,37.49091]}},{"type":"Feature","properties":{"name":"김포공항","name_en":"Gimpo Int'l Airport","network":"수도권 전철"},"geometry":{"type":"Point","coordinates":[126.80139,37.56192]}},{"type":"Feature","properties":{"name":"동대문역사문화공원","name_en":"Dongdaemun History & Culture Park Station (DDP)","network":"수도권 전철"},"geometry":{"type":"Point","coordinates":[127.00812,37.56526]}},{"type":"Feature","properties":{"name":"구로","name_en":"Guro","network":"수도권 전철"},"geometry":{"type":"Point","coordinates":[126.88251,37.50345]}},{"type":"Feature","properties":{"name":"안국","name_en":"Anguk","network":"수도권 전철"},"geometry":{"type":"Point","coordinates":[126.98617,37.57683]}},{"type":"Feature","properties":{"name":"강일","name_en":"Gangil","network":"수도권 전철"},"geometry":{"type":"Point","coordinates":[127.17576,37.55748]}},{"type":"Feature","properties":{"name":"천호","name_en":"Cheonho","network":"수도권 전철"},"geometry":{"type":"Point","coordinates":[127.1234,37.53852]}},{"type":"Feature","properties":{"name":"동대문","name_en":"Dongdaemun","network":"수도권 전철"},"geometry":{"type":"Point","coordinates":[127.01149,37.57186]}},{"type":"Feature","properties":{"name":"삼각지","name_en":"Samgakji","network":"수도권 전철"},"geometry":{"type":"Point","coordinates":[126.97389,37.53548]}},{"type":"Feature","properties":{"name":"도봉산","name_en":"Dobongsan","network":"수도권 전철"},"geometry":{"type":"Point","coordinates":[127.04608,37.68984]}},{"type":"Feature","properties":{"name":"도봉산","name_en":"Dobongsan","network":"수도권 전철"},"geometry":{"type":"Point","coordinates":[127.04657,37.68919]}},{"type":"Feature","properties":{"name":"노량진","name_en":"Noryangjin","network":"수도권 전철"},"geometry":{"type":"Point","coordinates":[126.94204,37.51424]}},{"type":"Feature","properties":{"name":"종각","name_en":"Jonggak","network":"수도권 전철"},"geometry":{"type":"Point","coordinates":[126.98318,37.57017]}},{"type":"Feature","properties":{"name":"건대입구","name_en":"Konkuk Univ.","network":"수도권 전철"},"geometry":{"type":"Point","coordinates":[127.07086,37.54044]}},{"type":"Feature","properties":{"name":"남영","name_en":"Namyeong","network":"수도권 전철"},"geometry":{"type":"Point","coordinates":[126.97132,37.54054]}},{"type":"Feature","properties":{"name":"대방","name_en":"Daebang","network":"수도권 전철"},"geometry":{"type":"Point","coordinates":[126.92648,37.51336]}},{"type":"Feature","properties":{"name":"응암","name_en":"Eungam","network":"수도권 전철"},"geometry":{"type":"Point","coordinates":[126.91553,37.59843]}},{"type":"Feature","properties":{"name":"합정","name_en":"Hapjeong","network":"수도권 전철"},"geometry":{"type":"Point","coordinates":[126.91366,37.54936]}},{"type":"Feature","properties":{"name":"동묘앞","name_en":"Dongmyo","network":"수도권 전철"},"geometry":{"type":"Point","coordinates":[127.01743,37.57351]}},{"type":"Feature","properties":{"name":"고려대","name_en":"Korea Univ.","network":"수도권 전철"},"geometry":{"type":"Point","coordinates":[127.03601,37.59038]}},{"type":"Feature","properties":{"name":"홍대입구","name_en":"Hongik Univ.","network":"수도권 전철"},"geometry":{"type":"Point","coordinates":[126.92691,37.55735]}},{"type":"Feature","properties":{"name":"선릉","name_en":"Seolleung","network":"수도권 전철"},"geometry":{"type":"Point","coordinates":[127.04895,37.50447]}},{"type":"Feature","properties":{"name":"강남구청","name_en":"Gangnam-gu Office","network":"수도권 전철"},"geometry":{"type":"Point","coordinates":[127.04129,37.51718]}},{"type":"Feature","properties":{"name":"모란","name_en":"Moran","network":"수도권 전철"},"geometry":{"type":"Point","coordinates":[127.12915,37.43374]}},{"type":"Feature","properties":{"name":"강남","name_en":"Gangnam","network":"수도권 전철"},"geometry":{"type":"Point","coordinates":[127.02756,37.49795]}},{"type":"Feature","properties":{"name":"가락시장","name_en":"Garak Market","network":"수도권 전철"},"geometry":{"type":"Point","coordinates":[127.11864,37.49253]}},{"type":"Feature","properties":{"name":"을지로3가","name_en":"Euljiro 3(sam)-ga","network":"수도권 전철"},"geometry":{"type":"Point","coordinates":[126.99253,37.56634]}},{"type":"Feature","properties":{"name":"불광","name_en":"Bulgwang","network":"수도권 전철"},"geometry":{"type":"Point","coordinates":[126.92963,37.61088]}},{"type":"Feature","properties":{"name":"구의","name_en":"Guui","network":"수도권 전철"},"geometry":{"type":"Point","coordinates":[127.08622,37.53717]}},{"type":"Feature","properties":{"name":"강변","name_en":"Gangbyeon","network":"수도권 전철"},"geometry":{"type":"Point","coordinates":[127.09474,37.53511]}},{"type":"Feature","properties":{"name":"잠실나루","name_en":"Jamsillaru","network":"수도권 전철"},"geometry":{"type":"Point","coordinates":[127.10383,37.52069]}},{"type":"Feature","properties":{"name":"충무로","name_en":"Chungmuro","network":"수도권 전철"},"geometry":{"type":"Point","coordinates":[126.99411,37.5612]}},{"type":"Feature","properties":{"name":"약수","name_en":"Yaksu","network":"수도권 전철"},"geometry":{"type":"Point","coordinates":[127.01062,37.55475]}},{"type":"Feature","properties":{"name":"교대","name_en":"Seoul Nat'l Univ. of Education","network":"수도권 전철"},"geometry":{"type":"Point","coordinates":[127.0137,37.49366]}},{"type":"Feature","properties":{"name":"오금","name_en":"Ogeum","network":"수도권 전철"},"geometry":{"type":"Point","coordinates":[127.12815,37.50198]}},{"type":"Feature","properties":{"name":"한양대","name_en":"Hanyang Univ.","network":"수도권 전철"},"geometry":{"type":"Point","coordinates":[127.04366,37.55573]}},{"type":"Feature","properties":{"name":"성수","name_en":"Seongsu","network":"수도권 전철"},"geometry":{"type":"Point","coordinates":[127.0561,37.54457]}},{"type":"Feature","properties":{"name":"시청","name_en":"City Hall","network":"수도권 전철"},"geometry":{"type":"Point","coordinates":[126.97711,37.56548]}},{"type":"Feature","properties":{"name":"을지로입구","name_en":"Euljiro 1(il)-ga","network":"수도권 전철"},"geometry":{"type":"Point","coordinates":[126.98262,37.56595]}},{"type":"Feature","properties":{"name":"을지로4가","name_en":"Euljiro 4(sa)-ga","network":"수도권 전철"},"geometry":{"type":"Point","coordinates":[126.99817,37.56664]}},{"type":"Feature","properties":{"name":"신당","name_en":"Sindang","network":"수도권 전철"},"geometry":{"type":"Point","coordinates":[127.01625,37.56538]}},{"type":"Feature","properties":{"name":"상왕십리","name_en":"Sangwangsimni","network":"수도권 전철"},"geometry":{"type":"Point","coordinates":[127.02925,37.56439]}},{"type":"Feature","properties":{"name":"신촌","name_en":"Sinchon","network":"수도권 전철"},"geometry":{"type":"Point","coordinates":[126.93691,37.55515]}},{"type":"Feature","properties":{"name":"이대","name_en":"Ewha Womans Univ.","network":"수도권 전철"},"geometry":{"type":"Point","coordinates":[126.94583,37.55677]}},{"type":"Feature","properties":{"name":"아현","name_en":"Ahyeon","network":"수도권 전철"},"geometry":{"type":"Point","coordinates":[126.95612,37.55743]}},{"type":"Feature","properties":{"name":"지축","name_en":"Jichuk","network":null},"geometry":{"type":"Point","coordinates":[126.91393,37.64812]}},{"type":"Feature","properties":{"name":"원흥","name_en":"Wonheung","network":null},"geometry":{"type":"Point","coordinates":[126.87367,37.65051]}},{"type":"Feature","properties":{"name":"원당","name_en":"Wondang","network":null},"geometry":{"type":"Point","coordinates":[126.8429,37.65305]}},{"type":"Feature","properties":{"name":"화정","name_en":"Hwajeong","network":null},"geometry":{"type":"Point","coordinates":[126.83258,37.63465]}},{"type":"Feature","properties":{"name":"대곡","name_en":"Daegok","network":"수도권 전철"},"geometry":{"type":"Point","coordinates":[126.81028,37.63178]}},{"type":"Feature","properties":{"name":"마두","name_en":"Madu","network":null},"geometry":{"type":"Point","coordinates":[126.77776,37.652]}},{"type":"Feature","properties":{"name":"정발산","name_en":"Jeongbalsan","network":null},"geometry":{"type":"Point","coordinates":[126.77327,37.65971]}},{"type":"Feature","properties":{"name":"삼송","name_en":"Samsong","network":null},"geometry":{"type":"Point","coordinates":[126.89548,37.65312]}},{"type":"Feature","properties":{"name":"마곡나루","name_en":"Magongnaru","network":"수도권 전철"},"geometry":{"type":"Point","coordinates":[126.82792,37.56622]}},{"type":"Feature","properties":{"name":"당산","name_en":"Dangsan","network":"수도권 전철"},"geometry":{"type":"Point","coordinates":[126.90248,37.5346]}},{"type":"Feature","properties":{"name":"문래","name_en":"Mullae","network":"수도권 전철"},"geometry":{"type":"Point","coordinates":[126.89487,37.51838]}},{"type":"Feature","properties":{"name":"신도림","name_en":"Sindorim","network":"수도권 전철"},"geometry":{"type":"Point","coordinates":[126.89123,37.50894]}},{"type":"Feature","properties":{"name":"구로디지털단지","name_en":"Guro Digital Complex","network":"수도권 전철"},"geometry":{"type":"Point","coordinates":[126.90159,37.48528]}},{"type":"Feature","properties":{"name":"신대방","name_en":"Sindaebang","network":"수도권 전철"},"geometry":{"type":"Point","coordinates":[126.91339,37.48759]}},{"type":"Feature","properties":{"name":"신림","name_en":"Sillim","network":"수도권 전철"},"geometry":{"type":"Point","coordinates":[126.92968,37.48423]}},{"type":"Feature","properties":{"name":"봉천","name_en":"Bongcheon","network":"수도권 전철"},"geometry":{"type":"Point","coordinates":[126.94194,37.48239]}},{"type":"Feature","properties":{"name":"서울대입구","name_en":"Seoul Nat'l Univ.","network":"수도권 전철"},"geometry":{"type":"Point","coordinates":[126.95272,37.48122]}},{"type":"Feature","properties":{"name":"낙성대","name_en":"Nakseongdae","network":"수도권 전철"},"geometry":{"type":"Point","coordinates":[126.96349,37.47706]}},{"type":"Feature","properties":{"name":"방배","name_en":"Bangbae","network":"수도권 전철"},"geometry":{"type":"Point","coordinates":[126.99771,37.48147]}},{"type":"Feature","properties":{"name":"서초","name_en":"Seocho","network":"수도권 전철"},"geometry":{"type":"Point","coordinates":[127.00768,37.49177]}},{"type":"Feature","properties":{"name":"역삼","name_en":"Yeoksam","network":"수도권 전철"},"geometry":{"type":"Point","coordinates":[127.03696,37.50082]}},{"type":"Feature","properties":{"name":"삼성","name_en":"Samseong","network":"수도권 전철"},"geometry":{"type":"Point","coordinates":[127.06314,37.50884]}},{"type":"Feature","properties":{"name":"종합운동장","name_en":"Sports Complex","network":"수도권 전철"},"geometry":{"type":"Point","coordinates":[127.07372,37.51106]}},{"type":"Feature","properties":{"name":"잠실새내","name_en":"Jamsilsaenae","network":"수도권 전철"},"geometry":{"type":"Point","coordinates":[127.08557,37.51159]}},{"type":"Feature","properties":{"name":"잠실","name_en":"Jamsil","network":"수도권 전철"},"geometry":{"type":"Point","coordinates":[127.10014,37.51322]}},{"type":"Feature","properties":{"name":"양천구청","name_en":"Yangcheon-gu Office","network":"수도권 전철"},"geometry":{"type":"Point","coordinates":[126.86594,37.5123]}},{"type":"Feature","properties":{"name":"신정네거리","name_en":"Sinjeongnegeori","network":"수도권 전철"},"geometry":{"type":"Point","coordinates":[126.85305,37.51998]}},{"type":"Feature","properties":{"name":"도림천","name_en":"Dorimcheon","network":"수도권 전철"},"geometry":{"type":"Point","coordinates":[126.88268,37.51445]}},{"type":"Feature","properties":{"name":"경찰병원","name_en":"National Police Hospital","network":"수도권 전철"},"geometry":{"type":"Point","coordinates":[127.1239,37.4954]}},{"type":"Feature","properties":{"name":"대청","name_en":"Daecheong","network":"수도권 전철"},"geometry":{"type":"Point","coordinates":[127.07955,37.49363]}},{"type":"Feature","properties":{"name":"학여울","name_en":"Hangnyeoul","network":"수도권 전철"},"geometry":{"type":"Point","coordinates":[127.06988,37.4965]}},{"type":"Feature","properties":{"name":"대치","name_en":"Daechi","network":"수도권 전철"},"geometry":{"type":"Point","coordinates":[127.06319,37.49447]}},{"type":"Feature","properties":{"name":"매봉","name_en":"Maebong","network":"수도권 전철"},"geometry":{"type":"Point","coordinates":[127.04698,37.48707]}},{"type":"Feature","properties":{"name":"남부터미널","name_en":"Nambu Bus Terminal","network":"수도권 전철"},"geometry":{"type":"Point","coordinates":[127.01634,37.48494]}},{"type":"Feature","properties":{"name":"잠원","name_en":"Jamwon","network":"수도권 전철"},"geometry":{"type":"Point","coordinates":[127.01115,37.51275]}},{"type":"Feature","properties":{"name":"신사","name_en":"Sinsa","network":"수도권 전철"},"geometry":{"type":"Point","coordinates":[127.01952,37.51611]}},{"type":"Feature","properties":{"name":"압구정","name_en":"Apgujeong","network":"수도권 전철"},"geometry":{"type":"Point","coordinates":[127.0285,37.52618]}},{"type":"Feature","properties":{"name":"금호","name_en":"Geumho","network":"수도권 전철"},"geometry":{"type":"Point","coordinates":[127.01592,37.54797]}},{"type":"Feature","properties":{"name":"동대입구","name_en":"Dongguk Univ.","network":"수도권 전철"},"geometry":{"type":"Point","coordinates":[127.00573,37.55906]}},{"type":"Feature","properties":{"name":"경복궁","name_en":"Gyeongbokgung","network":"수도권 전철"},"geometry":{"type":"Point","coordinates":[126.97353,37.57579]}},{"type":"Feature","properties":{"name":"독립문","name_en":"Dongnimmun","network":"수도권 전철"},"geometry":{"type":"Point","coordinates":[126.95784,37.57456]}},{"type":"Feature","properties":{"name":"무악재","name_en":"Muakjae","network":"수도권 전철"},"geometry":{"type":"Point","coordinates":[126.95035,37.58232]}},{"type":"Feature","properties":{"name":"홍제","name_en":"Hongje","network":"수도권 전철"},"geometry":{"type":"Point","coordinates":[126.94425,37.58869]}},{"type":"Feature","properties":{"name":"녹번","name_en":"Nokbeon","network":"수도권 전철"},"geometry":{"type":"Point","coordinates":[126.93573,37.60097]}},{"type":"Feature","properties":{"name":"구파발","name_en":"Gupabal","network":"수도권 전철"},"geometry":{"type":"Point","coordinates":[126.9188,37.63689]}},{"type":"Feature","properties":{"name":"정부과천청사","name_en":"Government Complex Gwacheon","network":null},"geometry":{"type":"Point","coordinates":[126.98975,37.42647]}},{"type":"Feature","properties":{"name":"대공원","name_en":"Seoul Grand Park","network":null},"geometry":{"type":"Point","coordinates":[127.00661,37.4358]}},{"type":"Feature","properties":{"name":"선바위","name_en":"Seonbawi","network":"수도권 전철"},"geometry":{"type":"Point","coordinates":[127.00211,37.45181]}},{"type":"Feature","properties":{"name":"불암산","name_en":"Buramsan","network":"수도권 전철"},"geometry":{"type":"Point","coordinates":[127.07892,37.6701]}},{"type":"Feature","properties":{"name":"쌍문","name_en":"Ssangmun","network":"수도권 전철"},"geometry":{"type":"Point","coordinates":[127.03458,37.6484]}},{"type":"Feature","properties":{"name":"수유","name_en":"Suyu","network":"수도권 전철"},"geometry":{"type":"Point","coordinates":[127.02572,37.63799]}},{"type":"Feature","properties":{"name":"미아","name_en":"Mia","network":"수도권 전철"},"geometry":{"type":"Point","coordinates":[127.02611,37.62649]}},{"type":"Feature","properties":{"name":"미아사거리","name_en":"Miasageori","network":"수도권 전철"},"geometry":{"type":"Point","coordinates":[127.03009,37.61319]}},{"type":"Feature","properties":{"name":"길음","name_en":"Gireum","network":"수도권 전철"},"geometry":{"type":"Point","coordinates":[127.02485,37.60316]}},{"type":"Feature","properties":{"name":"혜화","name_en":"Hyehwa","network":"수도권 전철"},"geometry":{"type":"Point","coordinates":[127.00195,37.58214]}},{"type":"Feature","properties":{"name":"명동","name_en":"Myeongdong","network":"수도권 전철"},"geometry":{"type":"Point","coordinates":[126.98638,37.5609]}},{"type":"Feature","properties":{"name":"회현","name_en":"Hoehyeon","network":"수도권 전철"},"geometry":{"type":"Point","coordinates":[126.97842,37.5587]}},{"type":"Feature","properties":{"name":"서울역","name_en":"Seoul Station","network":"수도권 전철"},"geometry":{"type":"Point","coordinates":[126.97257,37.55285]}},{"type":"Feature","properties":{"name":"숙대입구","name_en":"Sookmyung Women's Univ.","network":"수도권 전철"},"geometry":{"type":"Point","coordinates":[126.97196,37.54513]}},{"type":"Feature","properties":{"name":"신용산","name_en":"Sinyongsan","network":"수도권 전철"},"geometry":{"type":"Point","coordinates":[126.96786,37.52917]}},{"type":"Feature","properties":{"name":"사당","name_en":"Sadang","network":"수도권 전철"},"geometry":{"type":"Point","coordinates":[126.98167,37.47658]}},{"type":"Feature","properties":{"name":"남태령","name_en":"Namtaeryeong","network":"수도권 전철"},"geometry":{"type":"Point","coordinates":[126.9887,37.46466]}},{"type":"Feature","properties":{"name":"마천","name_en":"Macheon","network":"수도권 전철"},"geometry":{"type":"Point","coordinates":[127.15272,37.49495]}},{"type":"Feature","properties":{"name":"거여","name_en":"Geoyeo","network":"수도권 전철"},"geometry":{"type":"Point","coordinates":[127.14377,37.49335]}},{"type":"Feature","properties":{"name":"개롱","name_en":"Gaerong","network":"수도권 전철"},"geometry":{"type":"Point","coordinates":[127.13484,37.49807]}},{"type":"Feature","properties":{"name":"방이","name_en":"Bangi","network":"수도권 전철"},"geometry":{"type":"Point","coordinates":[127.12604,37.50864]}},{"type":"Feature","properties":{"name":"올림픽공원","name_en":"Olympic Park","network":"수도권 전철"},"geometry":{"type":"Point","coordinates":[127.13093,37.51615]}},{"type":"Feature","properties":{"name":"둔촌동","name_en":"Dunchon-dong","network":"수도권 전철"},"geometry":{"type":"Point","coordinates":[127.13624,37.5278]}},{"type":"Feature","properties":{"name":"상일동","name_en":"Sangil-dong","network":"수도권 전철"},"geometry":{"type":"Point","coordinates":[127.16678,37.55678]}},{"type":"Feature","properties":{"name":"고덕","name_en":"Godeok","network":"수도권 전철"},"geometry":{"type":"Point","coordinates":[127.15638,37.55534]}},{"type":"Feature","properties":{"name":"명일","name_en":"Myeongil","network":"수도권 전철"},"geometry":{"type":"Point","coordinates":[127.14408,37.55195]}},{"type":"Feature","properties":{"name":"굽은다리","name_en":"Gubeundari","network":"수도권 전철"},"geometry":{"type":"Point","coordinates":[127.14296,37.54564]}},{"type":"Feature","properties":{"name":"길동","name_en":"Gil-dong","network":"수도권 전철"},"geometry":{"type":"Point","coordinates":[127.1402,37.53837]}},{"type":"Feature","properties":{"name":"강동","name_en":"Gangdong","network":"수도권 전철"},"geometry":{"type":"Point","coordinates":[127.1326,37.5358]}},{"type":"Feature","properties":{"name":"광나루","name_en":"Gwangnaru","network":"수도권 전철"},"geometry":{"type":"Point","coordinates":[127.10353,37.5453]}},{"type":"Feature","properties":{"name":"아차산","name_en":"Achasan","network":"수도권 전철"},"geometry":{"type":"Point","coordinates":[127.0898,37.5517]}},{"type":"Feature","properties":{"name":"장한평","name_en":"Janghanpyeong","network":"수도권 전철"},"geometry":{"type":"Point","coordinates":[127.06457,37.56149]}},{"type":"Feature","properties":{"name":"답십리","name_en":"Dapsipri","network":"수도권 전철"},"geometry":{"type":"Point","coordinates":[127.0527,37.56681]}},{"type":"Feature","properties":{"name":"마장","name_en":"Majang","network":"수도권 전철"},"geometry":{"type":"Point","coordinates":[127.04288,37.5661]}},{"type":"Feature","properties":{"name":"행당","name_en":"Haengdang","network":"수도권 전철"},"geometry":{"type":"Point","coordinates":[127.02999,37.55761]}},{"type":"Feature","properties":{"name":"신금호","name_en":"Singeumho","network":"수도권 전철"},"geometry":{"type":"Point","coordinates":[127.02025,37.55443]}},{"type":"Feature","properties":{"name":"광화문","name_en":"Gwanghwamun","network":"수도권 전철"},"geometry":{"type":"Point","coordinates":[126.9769,37.57162]}},{"type":"Feature","properties":{"name":"서대문","name_en":"Seodaemun","network":"수도권 전철"},"geometry":{"type":"Point","coordinates":[126.96664,37.5658]}},{"type":"Feature","properties":{"name":"애오개","name_en":"Aeogae","network":"수도권 전철"},"geometry":{"type":"Point","coordinates":[126.9567,37.55343]}},{"type":"Feature","properties":{"name":"공덕","name_en":"Gongdeok","network":"수도권 전철"},"geometry":{"type":"Point","coordinates":[126.95081,37.54365]}},{"type":"Feature","properties":{"name":"마포","name_en":"Mapo","network":"수도권 전철"},"geometry":{"type":"Point","coordinates":[126.94599,37.53964]}},{"type":"Feature","properties":{"name":"여의나루","name_en":"Yeouinaru","network":"수도권 전철"},"geometry":{"type":"Point","coordinates":[126.93253,37.52685]}},{"type":"Feature","properties":{"name":"여의도","name_en":"Yeouido","network":"수도권 전철"},"geometry":{"type":"Point","coordinates":[126.9243,37.52167]}},{"type":"Feature","properties":{"name":"신길","name_en":"Singil","network":"수도권 전철"},"geometry":{"type":"Point","coordinates":[126.91874,37.51665]}},{"type":"Feature","properties":{"name":"영등포시장","name_en":"Yeongdeungpo Market","network":"수도권 전철"},"geometry":{"type":"Point","coordinates":[126.90514,37.52269]}},{"type":"Feature","properties":{"name":"영등포구청","name_en":"Yeongdeungpo-gu Office","network":"수도권 전철"},"geometry":{"type":"Point","coordinates":[126.89634,37.52402]}},{"type":"Feature","properties":{"name":"양평","name_en":"Yangpyeong","network":"수도권 전철"},"geometry":{"type":"Point","coordinates":[126.88612,37.52563]}},{"type":"Feature","properties":{"name":"오목교","name_en":"Omokgyo","network":"수도권 전철"},"geometry":{"type":"Point","coordinates":[126.87512,37.52456]}},{"type":"Feature","properties":{"name":"목동","name_en":"Mok-dong","network":"수도권 전철"},"geometry":{"type":"Point","coordinates":[126.86452,37.52612]}},{"type":"Feature","properties":{"name":"신정","name_en":"Sinjeong","network":"수도권 전철"},"geometry":{"type":"Point","coordinates":[126.85597,37.52504]}},{"type":"Feature","properties":{"name":"까치산","name_en":"Kkachisan","network":"수도권 전철"},"geometry":{"type":"Point","coordinates":[126.84653,37.53211]}},{"type":"Feature","properties":{"name":"화곡","name_en":"Hwagok","network":"수도권 전철"},"geometry":{"type":"Point","coordinates":[126.8404,37.54167]}},{"type":"Feature","properties":{"name":"우장산","name_en":"Ujangsan","network":"수도권 전철"},"geometry":{"type":"Point","coordinates":[126.83632,37.54889]}},{"type":"Feature","properties":{"name":"발산","name_en":"Balsan","network":"수도권 전철"},"geometry":{"type":"Point","coordinates":[126.83747,37.5585]}},{"type":"Feature","properties":{"name":"마곡","name_en":"Magok","network":"수도권 전철"},"geometry":{"type":"Point","coordinates":[126.82475,37.56025]}},{"type":"Feature","properties":{"name":"송정","name_en":"Songjeong","network":"수도권 전철"},"geometry":{"type":"Point","coordinates":[126.81194,37.56128]}},{"type":"Feature","properties":{"name":"개화산","name_en":"Gaehwasan","network":"수도권 전철"},"geometry":{"type":"Point","coordinates":[126.80826,37.57288]}},{"type":"Feature","properties":{"name":"방화","name_en":"Banghwa","network":"수도권 전철"},"geometry":{"type":"Point","coordinates":[126.81273,37.5774]}},{"type":"Feature","properties":{"name":"봉화산","name_en":"Bonghwasan","network":"수도권 전철"},"geometry":{"type":"Point","coordinates":[127.0911,37.61742]}},{"type":"Feature","properties":{"name":"화랑대","name_en":"Hwarangdae","network":"수도권 전철"},"geometry":{"type":"Point","coordinates":[127.08371,37.61978]}},{"type":"Feature","properties":{"name":"석계","name_en":"Seokgye","network":"수도권 전철"},"geometry":{"type":"Point","coordinates":[127.06584,37.61481]}},{"type":"Feature","properties":{"name":"돌곶이","name_en":"Dolgoji","network":"수도권 전철"},"geometry":{"type":"Point","coordinates":[127.05649,37.61057]}},{"type":"Feature","properties":{"name":"상월곡","name_en":"Sangwolgok","network":"수도권 전철"},"geometry":{"type":"Point","coordinates":[127.04827,37.60624]}},{"type":"Feature","properties":{"name":"월곡","name_en":"Wolgok","network":"수도권 전철"},"geometry":{"type":"Point","coordinates":[127.04146,37.60192]}},{"type":"Feature","properties":{"name":"안암","name_en":"Anam","network":"수도권 전철"},"geometry":{"type":"Point","coordinates":[127.02928,37.58627]}},{"type":"Feature","properties":{"name":"창신","name_en":"Changsin","network":"수도권 전철"},"geometry":{"type":"Point","coordinates":[127.01525,37.5798]}},{"type":"Feature","properties":{"name":"청구","name_en":"Cheonggu","network":"수도권 전철"},"geometry":{"type":"Point","coordinates":[127.01378,37.56023]}},{"type":"Feature","properties":{"name":"버티고개","name_en":"Beotigogae","network":"수도권 전철"},"geometry":{"type":"Point","coordinates":[127.00659,37.54823]}},{"type":"Feature","properties":{"name":"한강진","name_en":"Hangangjin","network":"수도권 전철"},"geometry":{"type":"Point","coordinates":[127.00175,37.5398]}},{"type":"Feature","properties":{"name":"이태원","name_en":"Itaewon","network":"수도권 전철"},"geometry":{"type":"Point","coordinates":[126.99437,37.5345]}},{"type":"Feature","properties":{"name":"녹사평","name_en":"Noksapyeong","network":"수도권 전철"},"geometry":{"type":"Point","coordinates":[126.98658,37.53492]}},{"type":"Feature","properties":{"name":"효창공원앞","name_en":"Hyochang Park","network":"수도권 전철"},"geometry":{"type":"Point","coordinates":[126.96133,37.53934]}},{"type":"Feature","properties":{"name":"대흥","name_en":"Daeheung","network":"수도권 전철"},"geometry":{"type":"Point","coordinates":[126.94235,37.5477]}},{"type":"Feature","properties":{"name":"광흥창","name_en":"Gwangheungchang","network":"수도권 전철"},"geometry":{"type":"Point","coordinates":[126.93196,37.54747]}},{"type":"Feature","properties":{"name":"상수","name_en":"Sangsu","network":"수도권 전철"},"geometry":{"type":"Point","coordinates":[126.92289,37.54776]}},{"type":"Feature","properties":{"name":"망원","name_en":"Mangwon","network":"수도권 전철"},"geometry":{"type":"Point","coordinates":[126.91013,37.55603]}},{"type":"Feature","properties":{"name":"마포구청","name_en":"Mapo-gu Office","network":"수도권 전철"},"geometry":{"type":"Point","coordinates":[126.90336,37.56356]}},{"type":"Feature","properties":{"name":"월드컵경기장","name_en":"World Cup Stadium","network":"수도권 전철"},"geometry":{"type":"Point","coordinates":[126.89932,37.57019]}},{"type":"Feature","properties":{"name":"증산","name_en":"Jeungsan","network":"수도권 전철"},"geometry":{"type":"Point","coordinates":[126.90991,37.58414]}},{"type":"Feature","properties":{"name":"새절","name_en":"Saejeol","network":"수도권 전철"},"geometry":{"type":"Point","coordinates":[126.91379,37.59165]}},{"type":"Feature","properties":{"name":"구산","name_en":"Gusan","network":"수도권 전철"},"geometry":{"type":"Point","coordinates":[126.91722,37.61125]}},{"type":"Feature","properties":{"name":"연신내","name_en":"Yeonsinnae","network":"수도권 전철"},"geometry":{"type":"Point","coordinates":[126.92118,37.61892]}},{"type":"Feature","properties":{"name":"독바위","name_en":"Dokbawi","network":"수도권 전철"},"geometry":{"type":"Point","coordinates":[126.93302,37.61834]}},{"type":"Feature","properties":{"name":"역촌","name_en":"Yeokchon","network":"수도권 전철"},"geometry":{"type":"Point","coordinates":[126.92276,37.60607]}},{"type":"Feature","properties":{"name":"장암","name_en":"Jangam","network":"수도권 전철"},"geometry":{"type":"Point","coordinates":[127.05291,37.69997]}},{"type":"Feature","properties":{"name":"어린이대공원","name_en":"Children's Grand Park","network":"수도권 전철"},"geometry":{"type":"Point","coordinates":[127.07439,37.5476]}},{"type":"Feature","properties":{"name":"군자","name_en":"Gunja","network":"수도권 전철"},"geometry":{"type":"Point","coordinates":[127.07956,37.55724]}},{"type":"Feature","properties":{"name":"중곡","name_en":"Junggok","network":"수도권 전철"},"geometry":{"type":"Point","coordinates":[127.08452,37.56631]}},{"type":"Feature","properties":{"name":"용마산","name_en":"Yongmasan","network":"수도권 전철"},"geometry":{"type":"Point","coordinates":[127.08658,37.57399]}},{"type":"Feature","properties":{"name":"사가정","name_en":"Sagajeong","network":"수도권 전철"},"geometry":{"type":"Point","coordinates":[127.08841,37.5807]}},{"type":"Feature","properties":{"name":"면목","name_en":"Myeonmok","network":"수도권 전철"},"geometry":{"type":"Point","coordinates":[127.0876,37.5884]}},{"type":"Feature","properties":{"name":"상봉","name_en":"Sangbong","network":"수도권 전철"},"geometry":{"type":"Point","coordinates":[127.08559,37.59608]}},{"type":"Feature","properties":{"name":"중화","name_en":"Junghwa","network":"수도권 전철"},"geometry":{"type":"Point","coordinates":[127.07952,37.60163]}},{"type":"Feature","properties":{"name":"먹골","name_en":"Meokgol","network":"수도권 전철"},"geometry":{"type":"Point","coordinates":[127.07765,37.61144]}},{"type":"Feature","properties":{"name":"태릉입구","name_en":"Taereung","network":"수도권 전철"},"geometry":{"type":"Point","coordinates":[127.07567,37.61769]}},{"type":"Feature","properties":{"name":"공릉","name_en":"Gongneung","network":"수도권 전철"},"geometry":{"type":"Point","coordinates":[127.07304,37.62564]}},{"type":"Feature","properties":{"name":"하계","name_en":"Hagye","network":"수도권 전철"},"geometry":{"type":"Point","coordinates":[127.06825,37.63602]}},{"type":"Feature","properties":{"name":"중계","name_en":"Junggye","network":"수도권 전철"},"geometry":{"type":"Point","coordinates":[127.06387,37.64554]}},{"type":"Feature","properties":{"name":"노원","name_en":"Nowon","network":"수도권 전철"},"geometry":{"type":"Point","coordinates":[127.06049,37.65459]}},{"type":"Feature","properties":{"name":"마들","name_en":"Madeul","network":"수도권 전철"},"geometry":{"type":"Point","coordinates":[127.05772,37.66504]}},{"type":"Feature","properties":{"name":"수락산","name_en":"Suraksan","network":"수도권 전철"},"geometry":{"type":"Point","coordinates":[127.05534,37.6778]}},{"type":"Feature","properties":{"name":"광명사거리","name_en":"Gwangmyeongsageori","network":null},"geometry":{"type":"Point","coordinates":[126.85446,37.47942]}},{"type":"Feature","properties":{"name":"철산","name_en":"Cheolsan","network":"수도권 전철"},"geometry":{"type":"Point","coordinates":[126.8676,37.476]}},{"type":"Feature","properties":{"name":"가산디지털단지","name_en":"Gasan Digital Complex","network":"수도권 전철"},"geometry":{"type":"Point","coordinates":[126.88262,37.48159]}},{"type":"Feature","properties":{"name":"남구로","name_en":"Namguro","network":"수도권 전철"},"geometry":{"type":"Point","coordinates":[126.88667,37.48536]}},{"type":"Feature","properties":{"name":"대림","name_en":"Daerim","network":"수도권 전철"},"geometry":{"type":"Point","coordinates":[126.89493,37.49344]}},{"type":"Feature","properties":{"name":"신풍","name_en":"Sinpung","network":"수도권 전철"},"geometry":{"type":"Point","coordinates":[126.90888,37.50017]}},{"type":"Feature","properties":{"name":"보라매","name_en":"Boramae","network":"수도권 전철"},"geometry":{"type":"Point","coordinates":[126.92038,37.49993]}},{"type":"Feature","properties":{"name":"신대방삼거리","name_en":"Sindaebangsamgeori","network":"수도권 전철"},"geometry":{"type":"Point","coordinates":[126.92822,37.49971]}},{"type":"Feature","properties":{"name":"장승배기","name_en":"Jangseungbaegi","network":"수도권 전철"},"geometry":{"type":"Point","coordinates":[126.93928,37.50502]}},{"type":"Feature","properties":{"name":"상도","name_en":"Sangdo","network":"수도권 전철"},"geometry":{"type":"Point","coordinates":[126.94767,37.50322]}},{"type":"Feature","properties":{"name":"숭실대입구","name_en":"Soongsil Univ.","network":"수도권 전철"},"geometry":{"type":"Point","coordinates":[126.95413,37.49569]}},{"type":"Feature","properties":{"name":"남성","name_en":"Namseong","network":"수도권 전철"},"geometry":{"type":"Point","coordinates":[126.97189,37.48435]}},{"type":"Feature","properties":{"name":"이수","name_en":"Isu","network":"수도권 전철"},"geometry":{"type":"Point","coordinates":[126.98211,37.48545]}},{"type":"Feature","properties":{"name":"내방","name_en":"Naebang","network":"수도권 전철"},"geometry":{"type":"Point","coordinates":[126.99355,37.48765]}},{"type":"Feature","properties":{"name":"반포","name_en":"Banpo","network":"수도권 전철"},"geometry":{"type":"Point","coordinates":[127.01163,37.50817]}},{"type":"Feature","properties":{"name":"논현","name_en":"Nonhyeon","network":"수도권 전철"},"geometry":{"type":"Point","coordinates":[127.02136,37.51098]}},{"type":"Feature","properties":{"name":"학동","name_en":"Hak-dong","network":"수도권 전철"},"geometry":{"type":"Point","coordinates":[127.03075,37.51396]}},{"type":"Feature","properties":{"name":"청담","name_en":"Cheongdam","network":"수도권 전철"},"geometry":{"type":"Point","coordinates":[127.05168,37.51909]}},{"type":"Feature","properties":{"name":"자양","name_en":"Jayang","network":"수도권 전철"},"geometry":{"type":"Point","coordinates":[127.06674,37.53153]}},{"type":"Feature","properties":{"name":"용두","name_en":"Yongdu","network":"수도권 전철"},"geometry":{"type":"Point","coordinates":[127.03807,37.57407]}},{"type":"Feature","properties":{"name":"신답","name_en":"Sindap","network":"수도권 전철"},"geometry":{"type":"Point","coordinates":[127.04713,37.56972]}},{"type":"Feature","properties":{"name":"신중동","name_en":"Sinjung-dong","network":null},"geometry":{"type":"Point","coordinates":[126.77623,37.50304]}},{"type":"Feature","properties":{"name":"춘의","name_en":"Chunui","network":null},"geometry":{"type":"Point","coordinates":[126.7872,37.50373]}},{"type":"Feature","properties":{"name":"부천종합운동장","name_en":"Bucheon Stadium","network":null},"geometry":{"type":"Point","coordinates":[126.79729,37.50546]}},{"type":"Feature","properties":{"name":"까치울","name_en":"Kkachiul","network":null},"geometry":{"type":"Point","coordinates":[126.81138,37.50624]}},{"type":"Feature","properties":{"name":"천왕","name_en":"Cheonwang","network":"수도권 전철"},"geometry":{"type":"Point","coordinates":[126.83892,37.48637]}},{"type":"Feature","properties":{"name":"수진","name_en":"Sujin","network":null},"geometry":{"type":"Point","coordinates":[127.14069,37.43744]}},{"type":"Feature","properties":{"name":"신흥","name_en":"Sinheung","network":null},"geometry":{"type":"Point","coordinates":[127.14766,37.441]}},{"type":"Feature","properties":{"name":"단대오거리","name_en":"Dandaeogeori","network":null},"geometry":{"type":"Point","coordinates":[127.15678,37.44508]}},{"type":"Feature","properties":{"name":"남한산성입구","name_en":"Namhansanseong","network":null},"geometry":{"type":"Point","coordinates":[127.15981,37.45155]}},{"type":"Feature","properties":{"name":"산성","name_en":"Sanseong","network":null},"geometry":{"type":"Point","coordinates":[127.14993,37.45687]}},{"type":"Feature","properties":{"name":"남위례","name_en":"Namwirye","network":null},"geometry":{"type":"Point","coordinates":[127.13922,37.46277]}},{"type":"Feature","properties":{"name":"장지","name_en":"Jangji","network":"수도권 전철"},"geometry":{"type":"Point","coordinates":[127.12607,37.47889]}},{"type":"Feature","properties":{"name":"문정","name_en":"Munjeong","network":"수도권 전철"},"geometry":{"type":"Point","coordinates":[127.12252,37.48584]}},{"type":"Feature","properties":{"name":"송파","name_en":"Songpa","network":"수도권 전철"},"geometry":{"type":"Point","coordinates":[127.11218,37.49972]}},{"type":"Feature","properties":{"name":"석촌","name_en":"Seokchon","network":"수도권 전철"},"geometry":{"type":"Point","coordinates":[127.10711,37.5053]}},{"type":"Feature","properties":{"name":"몽촌토성","name_en":"Mongchontoseong","network":"수도권 전철"},"geometry":{"type":"Point","coordinates":[127.11267,37.51753]}},{"type":"Feature","properties":{"name":"강동구청","name_en":"Gangdong-gu Office","network":"수도권 전철"},"geometry":{"type":"Point","coordinates":[127.12062,37.53069]}},{"type":"Feature","properties":{"name":"암사","name_en":"Amsa","network":"수도권 전철"},"geometry":{"type":"Point","coordinates":[127.12754,37.55011]}},{"type":"Feature","properties":{"name":"중앙보훈병원","name_en":"VHS Medical Center","network":"수도권 전철"},"geometry":{"type":"Point","coordinates":[127.14826,37.52828]}},{"type":"Feature","properties":{"name":"둔촌오륜","name_en":"Dunchon Oryun","network":"수도권 전철"},"geometry":{"type":"Point","coordinates":[127.13842,37.51984]}},{"type":"Feature","properties":{"name":"한성백제","name_en":"Hanseong Baekje","network":"수도권 전철"},"geometry":{"type":"Point","coordinates":[127.11621,37.51667]}},{"type":"Feature","properties":{"name":"송파나루","name_en":"Songpanaru","network":"수도권 전철"},"geometry":{"type":"Point","coordinates":[127.1128,37.51125]}},{"type":"Feature","properties":{"name":"석촌고분","name_en":"Seokchon Gobun","network":"수도권 전철"},"geometry":{"type":"Point","coordinates":[127.09661,37.50244]}},{"type":"Feature","properties":{"name":"삼전","name_en":"Samjeon","network":"수도권 전철"},"geometry":{"type":"Point","coordinates":[127.08721,37.50453]}},{"type":"Feature","properties":{"name":"백석","name_en":"Baekseok","network":null},"geometry":{"type":"Point","coordinates":[126.78804,37.64304]}},{"type":"Feature","properties":{"name":"역곡","name_en":"Yeokgok","network":"수도권 전철"},"geometry":{"type":"Point","coordinates":[126.81181,37.48522]}},{"type":"Feature","properties":{"name":"성신여대입구","name_en":"Sungshin Women's University","network":"수도권 전철"},"geometry":{"type":"Point","coordinates":[127.01648,37.59268]}},{"type":"Feature","properties":{"name":"청량리","name_en":"Cheongnyangni","network":"수도권 전철"},"geometry":{"type":"Point","coordinates":[127.04463,37.57998]}},{"type":"Feature","properties":{"name":"신내","name_en":"Sinnae","network":"수도권 전철"},"geometry":{"type":"Point","coordinates":[127.10409,37.61255]}},{"type":"Feature","properties":{"name":"종로3가","name_en":"Jongno 3(sam)-ga","network":"수도권 전철"},"geometry":{"type":"Point","coordinates":[126.99232,37.57044]}},{"type":"Feature","properties":{"name":"이촌","name_en":"Ichon","network":"수도권 전철"},"geometry":{"type":"Point","coordinates":[126.97337,37.52271]}},{"type":"Feature","properties":{"name":"별내별가람","name_en":"Byeollaebyeolgaram","network":null},"geometry":{"type":"Point","coordinates":[127.11627,37.66782]}},{"type":"Feature","properties":{"name":"서울역","name_en":"Seoul Station","network":"수도권 전철"},"geometry":{"type":"Point","coordinates":[126.9698,37.55344]}},{"type":"Feature","properties":{"name":"건대입구","name_en":"Konkuk Univ.","network":"수도권 전철"},"geometry":{"type":"Point","coordinates":[127.06938,37.54036]}},{"type":"Feature","properties":{"name":"모란","name_en":"Moran","network":"수도권 전철"},"geometry":{"type":"Point","coordinates":[127.12908,37.43222]}},{"type":"Feature","properties":{"name":"왕십리","name_en":"Wangsimni","network":"수도권 전철"},"geometry":{"type":"Point","coordinates":[127.03715,37.56121]}},{"type":"Feature","properties":{"name":"왕십리","name_en":"Wangsimni","network":"수도권 전철"},"geometry":{"type":"Point","coordinates":[127.03692,37.56183]}},{"type":"Feature","properties":{"name":"신설동","name_en":"Sinseol-dong","network":"수도권 전철"},"geometry":{"type":"Point","coordinates":[127.02545,37.57452]}},{"type":"Feature","properties":{"name":"동작","name_en":"Dongjak","network":"수도권 전철"},"geometry":{"type":"Point","coordinates":[126.98035,37.50311]}},{"type":"Feature","properties":{"name":"개화","name_en":"Gaehwa","network":"수도권 전철"},"geometry":{"type":"Point","coordinates":[126.79767,37.57854]}},{"type":"Feature","properties":{"name":"주엽","name_en":"Juyeop","network":null},"geometry":{"type":"Point","coordinates":[126.76124,37.67015]}},{"type":"Feature","properties":{"name":"샛강","name_en":"Saetgang","network":"수도권 전철"},"geometry":{"type":"Point","coordinates":[126.92828,37.51736]}},{"type":"Feature","properties":{"name":"디지털미디어시티","name_en":"Digital Media City","network":"수도권 전철"},"geometry":{"type":"Point","coordinates":[126.89808,37.5774]}},{"type":"Feature","properties":{"name":"디지털미디어시티","name_en":"Digital Media City","network":"수도권 전철"},"geometry":{"type":"Point","coordinates":[126.90146,37.57619]}},{"type":"Feature","properties":{"name":"노원","name_en":"Nowon","network":"수도권 전철"},"geometry":{"type":"Point","coordinates":[127.06348,37.65637]}},{"type":"Feature","properties":{"name":"당산","name_en":"Dangsan","network":"수도권 전철"},"geometry":{"type":"Point","coordinates":[126.90268,37.53353]}},{"type":"Feature","properties":{"name":"서울역","name_en":"Seoul (Station)","network":"수도권 전철"},"geometry":{"type":"Point","coordinates":[126.97236,37.55607]}},{"type":"Feature","properties":{"name":"신길","name_en":"Singil","network":"수도권 전철"},"geometry":{"type":"Point","coordinates":[126.91635,37.51751]}},{"type":"Feature","properties":{"name":"가산디지털단지","name_en":"Gasan Digital Complex","network":"수도권 전철"},"geometry":{"type":"Point","coordinates":[126.88288,37.48045]}},{"type":"Feature","properties":{"name":"상계","name_en":"Sanggye","network":"수도권 전철"},"geometry":{"type":"Point","coordinates":[127.07344,37.66076]}},{"type":"Feature","properties":{"name":"선유도","name_en":"Seonyudo","network":"수도권 전철"},"geometry":{"type":"Point","coordinates":[126.89398,37.53786]}},{"type":"Feature","properties":{"name":"신목동","name_en":"Sinmokdong","network":"수도권 전철"},"geometry":{"type":"Point","coordinates":[126.88318,37.54421]}},{"type":"Feature","properties":{"name":"염창","name_en":"Yeomchang","network":"수도권 전철"},"geometry":{"type":"Point","coordinates":[126.8754,37.54703]}},{"type":"Feature","properties":{"name":"등촌","name_en":"Deungchon","network":"수도권 전철"},"geometry":{"type":"Point","coordinates":[126.86457,37.55115]}},{"type":"Feature","properties":{"name":"증미","name_en":"Jeungmi","network":"수도권 전철"},"geometry":{"type":"Point","coordinates":[126.86182,37.55751]}},{"type":"Feature","properties":{"name":"가양","name_en":"Gayang","network":"수도권 전철"},"geometry":{"type":"Point","coordinates":[126.8551,37.56114]}},{"type":"Feature","properties":{"name":"양천향교","name_en":"Yangcheon Hyanggyo","network":"수도권 전철"},"geometry":{"type":"Point","coordinates":[126.8413,37.56845]}},{"type":"Feature","properties":{"name":"신방화","name_en":"Sinbanghwa","network":"수도권 전철"},"geometry":{"type":"Point","coordinates":[126.81659,37.5675]}},{"type":"Feature","properties":{"name":"공항시장","name_en":"Airport Market","network":"수도권 전철"},"geometry":{"type":"Point","coordinates":[126.8106,37.56366]}},{"type":"Feature","properties":{"name":"부천종합운동장","name_en":"Bucheon Stadium","network":"코레일"},"geometry":{"type":"Point","coordinates":[126.79746,37.50584]}},{"type":"Feature","properties":{"name":"원종","name_en":"Wonjong","network":null},"geometry":{"type":"Point","coordinates":[126.80486,37.52385]}},{"type":"Feature","properties":{"name":"총신대입구(이수)","name_en":"Chongshin Univ. (Isu)","network":"수도권 전철"},"geometry":{"type":"Point","coordinates":[126.98224,37.48678]}},{"type":"Feature","properties":{"name":"동묘앞","name_en":"Dongmyo","network":"수도권 전철"},"geometry":{"type":"Point","coordinates":[127.01566,37.57234]}},{"type":"Feature","properties":{"name":"동대문","name_en":"Dongdaemun","network":"수도권 전철"},"geometry":{"type":"Point","coordinates":[127.00953,37.5705]}},{"type":"Feature","properties":{"name":"종로3가","name_en":"Jongno 3(sam)-ga","network":"수도권 전철"},"geometry":{"type":"Point","coordinates":[126.99027,37.57254]}},{"type":"Feature","properties":{"name":"종로3가","name_en":"Jongno 3(sam)-ga","network":"수도권 전철"},"geometry":{"type":"Point","coordinates":[126.99191,37.5715]}},{"type":"Feature","properties":{"name":"시청","name_en":"City Hall","network":"수도권 전철"},"geometry":{"type":"Point","coordinates":[126.97479,37.56333]}},{"type":"Feature","properties":{"name":"김포공항","name_en":"Gimpo Int'l Airport","network":"수도권 전철"},"geometry":{"type":"Point","coordinates":[126.80158,37.56199]}},{"type":"Feature","properties":{"name":"옥수","name_en":"Oksu","network":"수도권 전철"},"geometry":{"type":"Point","coordinates":[127.01755,37.54137]}},{"type":"Feature","properties":{"name":"신도림","name_en":"Sindorim","network":"수도권 전철"},"geometry":{"type":"Point","coordinates":[126.89166,37.50913]}},{"type":"Feature","properties":{"name":"장자호수공원","name_en":"Jangja Lake Park","network":null},"geometry":{"type":"Point","coordinates":[127.13791,37.58741]}},{"type":"Feature","properties":{"name":"구리","name_en":"Guri","network":null},"geometry":{"type":"Point","coordinates":[127.14084,37.60227]}},{"type":"Feature","properties":{"name":"동구릉","name_en":"Donggureung","network":null},"geometry":{"type":"Point","coordinates":[127.13811,37.61051]}},{"type":"Feature","properties":{"name":"다산","name_en":"Dasan","network":null},"geometry":{"type":"Point","coordinates":[127.14976,37.62433]}},{"type":"Feature","properties":{"name":"별내","name_en":"Byeollae","network":null},"geometry":{"type":"Point","coordinates":[127.12782,37.64203]}},{"type":"Feature","properties":{"name":"뚝섬","name_en":"Ttukseom","network":"수도권 전철"},"geometry":{"type":"Point","coordinates":[127.04741,37.54724]}},{"type":"Feature","properties":{"name":"동대문역사문화공원","name_en":"Dongdaemun History & Culture Park Station (DDP)","network":"수도권 전철"},"geometry":{"type":"Point","coordinates":[127.00714,37.56428]}},{"type":"Feature","properties":{"name":"동대문역사문화공원","name_en":"Dongdaemun History & Culture Park Station (DDP)","network":"수도권 전철"},"geometry":{"type":"Point","coordinates":[127.00816,37.56588]}},{"type":"Feature","properties":{"name":"종합운동장","name_en":"Sports Complex","network":"수도권 전철"},"geometry":{"type":"Point","coordinates":[127.07621,37.51141]}},{"type":"Feature","properties":{"name":"홍대입구","name_en":"Hongik Univ.","network":"수도권 전철"},"geometry":{"type":"Point","coordinates":[126.92345,37.55663]}}]}